[{"OBJECT_NAME":"SL-16 R/B","OBJECT_ID":"1993-059B","EPOCH":"2026-03-12T12:17:07.942272","MEAN_MOTION":14.17231383,"ECCENTRICITY":0.0018365,"INCLINATION":70.9929,"RA_OF_ASC_NODE":5.1749,"ARG_OF_PERICENTER":212.4075,"MEAN_ANOMALY":147.5922,"EPHEMERIS_TYPE":0,"CLASSIFICATION_TYPE":"U","NORAD_CAT_ID":22803,"ELEMENT_SET_NO":999,"REV_AT_EPOCH":67993,"BSTAR":-3.3432e-6,"MEAN_MOTION_DOT":-5.5e-7,"MEAN_MOTION_DDOT":0},{"OBJECT_NAME":"ARIANE 40 R/B","OBJECT_ID":"1993-061H","EPOCH":"2026-03-12T16:49:50.894400","MEAN_MOTION":14.32862849,"ECCENTRICITY":0.0009574,"INCLINATION":98.491,"RA_OF_ASC_NODE":140.5294,"ARG_OF_PERICENTER":275.1159,"MEAN_ANOMALY":84.8933,"EPHEMERIS_TYPE":0,"CLASSIFICATION_TYPE":"U","NORAD_CAT_ID":22830,"ELEMENT_SET_NO":999,"REV_AT_EPOCH":69453,"BSTAR":0.00010535,"MEAN_MOTION_DOT":2.44e-6,"MEAN_MOTION_DDOT":0},{"OBJECT_NAME":"COSMOS 2278","OBJECT_ID":"1994-023A","EPOCH":"2026-03-12T17:01:45.020640","MEAN_MOTION":14.14379509,"ECCENTRICITY":0.0008293,"INCLINATION":71.0552,"RA_OF_ASC_NODE":168.7804,"ARG_OF_PERICENTER":7.529,"MEAN_ANOMALY":352.5956,"EPHEMERIS_TYPE":0,"CLASSIFICATION_TYPE":"U","NORAD_CAT_ID":23087,"ELEMENT_SET_NO":999,"REV_AT_EPOCH":64523,"BSTAR":1.898e-5,"MEAN_MOTION_DOT":-1.1e-7,"MEAN_MOTION_DDOT":0},{"OBJECT_NAME":"SL-16 R/B","OBJECT_ID":"1994-023B","EPOCH":"2026-03-12T09:37:43.558176","MEAN_MOTION":14.15010922,"ECCENTRICITY":0.0005689,"INCLINATION":70.9985,"RA_OF_ASC_NODE":65.1919,"ARG_OF_PERICENTER":282.9842,"MEAN_ANOMALY":77.0645,"EPHEMERIS_TYPE":0,"CLASSIFICATION_TYPE":"U","NORAD_CAT_ID":23088,"ELEMENT_SET_NO":999,"REV_AT_EPOCH":64647,"BSTAR":-8.5656e-5,"MEAN_MOTION_DOT":-2.14e-6,"MEAN_MOTION_DDOT":0},{"OBJECT_NAME":"SL-16 R/B","OBJECT_ID":"1994-074B","EPOCH":"2026-03-12T17:07:14.141568","MEAN_MOTION":14.79412069,"ECCENTRICITY":0.0006035,"INCLINATION":97.7106,"RA_OF_ASC_NODE":102.4086,"ARG_OF_PERICENTER":199.435,"MEAN_ANOMALY":283.4668,"EPHEMERIS_TYPE":0,"CLASSIFICATION_TYPE":"U","NORAD_CAT_ID":23343,"ELEMENT_SET_NO":999,"REV_AT_EPOCH":68769,"BSTAR":8.6804e-5,"MEAN_MOTION_DOT":5.98e-6,"MEAN_MOTION_DDOT":0},{"OBJECT_NAME":"SL-16 R/B","OBJECT_ID":"1994-077B","EPOCH":"2026-03-12T04:04:29.138016","MEAN_MOTION":14.15561637,"ECCENTRICITY":0.0002954,"INCLINATION":70.9853,"RA_OF_ASC_NODE":347.2721,"ARG_OF_PERICENTER":208.8129,"MEAN_ANOMALY":151.2831,"EPHEMERIS_TYPE":0,"CLASSIFICATION_TYPE":"U","NORAD_CAT_ID":23405,"ELEMENT_SET_NO":999,"REV_AT_EPOCH":61658,"BSTAR":7.8284365e-5,"MEAN_MOTION_DOT":1.05e-6,"MEAN_MOTION_DDOT":0},{"OBJECT_NAME":"ARIANE 40+ R/B","OBJECT_ID":"1995-021B","EPOCH":"2026-03-12T17:53:18.900096","MEAN_MOTION":14.3977498,"ECCENTRICITY":0.0007761,"INCLINATION":98.4492,"RA_OF_ASC_NODE":143.1865,"ARG_OF_PERICENTER":128.3405,"MEAN_ANOMALY":343.1943,"EPHEMERIS_TYPE":0,"CLASSIFICATION_TYPE":"U","NORAD_CAT_ID":23561,"ELEMENT_SET_NO":999,"REV_AT_EPOCH":61968,"BSTAR":0.00012127,"MEAN_MOTION_DOT":3.37e-6,"MEAN_MOTION_DDOT":0},{"OBJECT_NAME":"SL-16 R/B","OBJECT_ID":"1995-058B","EPOCH":"2026-03-12T17:48:49.547232","MEAN_MOTION":14.15497449,"ECCENTRICITY":0.0010649,"INCLINATION":71.0225,"RA_OF_ASC_NODE":173.8469,"ARG_OF_PERICENTER":120.1829,"MEAN_ANOMALY":240.035,"EPHEMERIS_TYPE":0,"CLASSIFICATION_TYPE":"U","NORAD_CAT_ID":23705,"ELEMENT_SET_NO":999,"REV_AT_EPOCH":56828,"BSTAR":0.00018601,"MEAN_MOTION_DOT":3.16e-6,"MEAN_MOTION_DDOT":0},{"OBJECT_NAME":"SL-16 R/B","OBJECT_ID":"1996-051B","EPOCH":"2026-03-12T17:10:24.841920","MEAN_MOTION":14.12416562,"ECCENTRICITY":0.0014828,"INCLINATION":70.7604,"RA_OF_ASC_NODE":168.8345,"ARG_OF_PERICENTER":143.3945,"MEAN_ANOMALY":216.8191,"EPHEMERIS_TYPE":0,"CLASSIFICATION_TYPE":"U","NORAD_CAT_ID":24298,"ELEMENT_SET_NO":999,"REV_AT_EPOCH":52207,"BSTAR":7.4448e-5,"MEAN_MOTION_DOT":8.8e-7,"MEAN_MOTION_DDOT":0},{"OBJECT_NAME":"ORBVIEW 2 (SEASTAR)","OBJECT_ID":"1997-037A","EPOCH":"2026-03-12T09:57:42.708960","MEAN_MOTION":14.35497264,"ECCENTRICITY":0.0003027,"INCLINATION":98.8572,"RA_OF_ASC_NODE":235.7991,"ARG_OF_PERICENTER":66.4464,"MEAN_ANOMALY":293.7039,"EPHEMERIS_TYPE":0,"CLASSIFICATION_TYPE":"U","NORAD_CAT_ID":24883,"ELEMENT_SET_NO":999,"REV_AT_EPOCH":50886,"BSTAR":0.00014441,"MEAN_MOTION_DOT":3.69e-6,"MEAN_MOTION_DDOT":0},{"OBJECT_NAME":"SL-16 R/B","OBJECT_ID":"1998-043G","EPOCH":"2026-03-12T19:39:02.961792","MEAN_MOTION":14.26050651,"ECCENTRICITY":0.0010062,"INCLINATION":98.8257,"RA_OF_ASC_NODE":25.2043,"ARG_OF_PERICENTER":11.7495,"MEAN_ANOMALY":348.3918,"EPHEMERIS_TYPE":0,"CLASSIFICATION_TYPE":"U","NORAD_CAT_ID":25400,"ELEMENT_SET_NO":999,"REV_AT_EPOCH":43943,"BSTAR":5.5455e-5,"MEAN_MOTION_DOT":8.7e-7,"MEAN_MOTION_DDOT":0},{"OBJECT_NAME":"SL-16 R/B","OBJECT_ID":"1998-045B","EPOCH":"2026-03-12T16:20:41.500896","MEAN_MOTION":14.16191601,"ECCENTRICITY":0.0006932,"INCLINATION":71.012,"RA_OF_ASC_NODE":175.2837,"ARG_OF_PERICENTER":3.5595,"MEAN_ANOMALY":356.5576,"EPHEMERIS_TYPE":0,"CLASSIFICATION_TYPE":"U","NORAD_CAT_ID":25407,"ELEMENT_SET_NO":999,"REV_AT_EPOCH":42752,"BSTAR":0.00017402,"MEAN_MOTION_DOT":2.97e-6,"MEAN_MOTION_DDOT":0},{"OBJECT_NAME":"ISS (ZARYA)","OBJECT_ID":"1998-067A","EPOCH":"2026-03-12T19:18:27.745920","MEAN_MOTION":15.48609576,"ECCENTRICITY":0.000797,"INCLINATION":51.6325,"RA_OF_ASC_NODE":56.9556,"ARG_OF_PERICENTER":185.8192,"MEAN_ANOMALY":174.2705,"EPHEMERIS_TYPE":0,"CLASSIFICATION_TYPE":"U","NORAD_CAT_ID":25544,"ELEMENT_SET_NO":999,"REV_AT_EPOCH":55681,"BSTAR":0.00018665,"MEAN_MOTION_DOT":9.714e-5,"MEAN_MOTION_DDOT":0},{"OBJECT_NAME":"CZ-4B R/B","OBJECT_ID":"1999-025C","EPOCH":"2026-03-12T18:43:40.577664","MEAN_MOTION":14.18265977,"ECCENTRICITY":0.0036587,"INCLINATION":98.6621,"RA_OF_ASC_NODE":115.9886,"ARG_OF_PERICENTER":337.5943,"MEAN_ANOMALY":138.4266,"EPHEMERIS_TYPE":0,"CLASSIFICATION_TYPE":"U","NORAD_CAT_ID":25732,"ELEMENT_SET_NO":999,"REV_AT_EPOCH":38860,"BSTAR":4.4809e-5,"MEAN_MOTION_DOT":5.0e-7,"MEAN_MOTION_DDOT":0},{"OBJECT_NAME":"OKEAN-O","OBJECT_ID":"1999-039A","EPOCH":"2026-03-12T19:53:33.248256","MEAN_MOTION":14.80341218,"ECCENTRICITY":0.0001156,"INCLINATION":97.9435,"RA_OF_ASC_NODE":131.6884,"ARG_OF_PERICENTER":70.7306,"MEAN_ANOMALY":289.4031,"EPHEMERIS_TYPE":0,"CLASSIFICATION_TYPE":"U","NORAD_CAT_ID":25860,"ELEMENT_SET_NO":999,"REV_AT_EPOCH":43485,"BSTAR":0.0001152,"MEAN_MOTION_DOT":8.26e-6,"MEAN_MOTION_DDOT":0},{"OBJECT_NAME":"SL-16 R/B","OBJECT_ID":"1999-039B","EPOCH":"2026-03-12T17:43:03.478080","MEAN_MOTION":14.81736452,"ECCENTRICITY":0.0013601,"INCLINATION":97.9961,"RA_OF_ASC_NODE":130.8305,"ARG_OF_PERICENTER":245.1835,"MEAN_ANOMALY":114.7964,"EPHEMERIS_TYPE":0,"CLASSIFICATION_TYPE":"U","NORAD_CAT_ID":25861,"ELEMENT_SET_NO":999,"REV_AT_EPOCH":43731,"BSTAR":9.539e-5,"MEAN_MOTION_DOT":6.99e-6,"MEAN_MOTION_DDOT":0},{"OBJECT_NAME":"DELTA 2 R/B","OBJECT_ID":"1999-041E","EPOCH":"2026-03-12T18:27:22.251456","MEAN_MOTION":14.11848167,"ECCENTRICITY":0.0502449,"INCLINATION":51.7624,"RA_OF_ASC_NODE":288.9809,"ARG_OF_PERICENTER":357.5121,"MEAN_ANOMALY":2.3326,"EPHEMERIS_TYPE":0,"CLASSIFICATION_TYPE":"U","NORAD_CAT_ID":25876,"ELEMENT_SET_NO":999,"REV_AT_EPOCH":36346,"BSTAR":0.00026634,"MEAN_MOTION_DOT":1.418e-5,"MEAN_MOTION_DDOT":0}]
